{
  "type": "FeatureCollection",
  "features": [
    {
      "type": "Feature",
      "properties": {
        "norad_id": 66837,
        "name": "STARLINK-35729",
        "group": "last-30-days",
        "lat": 67.80098194895747,
        "lon": -96.52409240500735,
        "alt_km": 318.00956264168417,
        "timestamp": "2025-12-12T05:47:27.527408+00:00",
        "meta_object_name": "STARLINK-35729",
        "meta_object_id": "2025-280S",
        "meta_epoch": "2025-12-10T18:00:02.000160",
        "meta_mean_motion": 15.87561134,
        "meta_eccentricity": 0.000382,
        "meta_inclination": 69.9927,
        "meta_ra_of_asc_node": 204.5159,
        "meta_arg_of_pericenter": 266.7119,
        "meta_mean_anomaly": 307.1782,
        "meta_ephemeris_type": 0,
        "meta_classification_type": "U",
        "meta_norad_cat_id": 66837,
        "meta_element_set_no": 999,
        "meta_rev_at_epoch": 258,
        "meta_bstar": -0.0071396,
        "meta_mean_motion_dot": -0.01661686,
        "meta_mean_motion_ddot": 0,
        "tle_line1": "1 66837U 25280S   25344.75002315 -.01661686  00000+0 -71396-2 0  9991",
        "tle_line2": "2 66837  69.9927 204.5159 0003820 266.7119 307.1782 15.87561134  2589"
      },
      "geometry": {
        "type": "Point",
        "coordinates": [
          -96.52409240500735,
          67.80098194895747
        ]
      }
    },
    {
      "type": "Feature",
      "properties": {
        "norad_id": 66838,
        "name": "STARLINK-35886",
        "group": "last-30-days",
        "lat": 69.14535936267434,
        "lon": -86.73491239430275,
        "alt_km": 317.6252396841737,
        "timestamp": "2025-12-12T05:47:27.527418+00:00",
        "meta_object_name": "STARLINK-35886",
        "meta_object_id": "2025-280T",
        "meta_epoch": "2025-12-10T18:00:02.000160",
        "meta_mean_motion": 15.87648363,
        "meta_eccentricity": 0.000369,
        "meta_inclination": 69.9926,
        "meta_ra_of_asc_node": 204.5117,
        "meta_arg_of_pericenter": 267.7878,
        "meta_mean_anomaly": 309.5468,
        "meta_ephemeris_type": 0,
        "meta_classification_type": "U",
        "meta_norad_cat_id": 66838,
        "meta_element_set_no": 999,
        "meta_rev_at_epoch": 258,
        "meta_bstar": -0.0071577,
        "meta_mean_motion_dot": -0.01671531,
        "meta_mean_motion_ddot": 0,
        "tle_line1": "1 66838U 25280T   25344.75002315 -.01671531  00000+0 -71577-2 0  9993",
        "tle_line2": "2 66838  69.9926 204.5117 0003690 267.7878 309.5468 15.87648363  2588"
      },
      "geometry": {
        "type": "Point",
        "coordinates": [
          -86.73491239430275,
          69.14535936267434
        ]
      }
    },
    {
      "type": "Feature",
      "properties": {
        "norad_id": 66839,
        "name": "STARLINK-35717",
        "group": "last-30-days",
        "lat": 68.52403633066736,
        "lon": -91.9243784942468,
        "alt_km": 317.7800055110083,
        "timestamp": "2025-12-12T05:47:27.527428+00:00",
        "meta_object_name": "STARLINK-35717",
        "meta_object_id": "2025-280U",
        "meta_epoch": "2025-12-10T18:00:02.000160",
        "meta_mean_motion": 15.87600798,
        "meta_eccentricity": 0.0003768,
        "meta_inclination": 69.9927,
        "meta_ra_of_asc_node": 204.5137,
        "meta_arg_of_pericenter": 269.5917,
        "meta_mean_anomaly": 305.9288,
        "meta_ephemeris_type": 0,
        "meta_classification_type": "U",
        "meta_norad_cat_id": 66839,
        "meta_element_set_no": 999,
        "meta_rev_at_epoch": 258,
        "meta_bstar": -0.0071206,
        "meta_mean_motion_dot": -0.01660629,
        "meta_mean_motion_ddot": 0,
        "tle_line1": "1 66839U 25280U   25344.75002315 -.01660629  00000+0 -71206-2 0  9999",
        "tle_line2": "2 66839  69.9927 204.5137 0003768 269.5917 305.9288 15.87600798  2582"
      },
      "geometry": {
        "type": "Point",
        "coordinates": [
          -91.9243784942468,
          68.52403633066736
        ]
      }
    },
    {
      "type": "Feature",
      "properties": {
        "norad_id": 66840,
        "name": "STARLINK-35837",
        "group": "last-30-days",
        "lat": 69.59789104987763,
        "lon": -81.34709205256168,
        "alt_km": 317.5206901904521,
        "timestamp": "2025-12-12T05:47:27.527438+00:00",
        "meta_object_name": "STARLINK-35837",
        "meta_object_id": "2025-280V",
        "meta_epoch": "2025-12-10T18:00:02.000160",
        "meta_mean_motion": 15.87691104,
        "meta_eccentricity": 0.0003714,
        "meta_inclination": 69.9929,
        "meta_ra_of_asc_node": 204.5098,
        "meta_arg_of_pericenter": 268.029,
        "meta_mean_anomaly": 311.0661,
        "meta_ephemeris_type": 0,
        "meta_classification_type": "U",
        "meta_norad_cat_id": 66840,
        "meta_element_set_no": 999,
        "meta_rev_at_epoch": 258,
        "meta_bstar": -0.0071656,
        "meta_mean_motion_dot": -0.01676267,
        "meta_mean_motion_ddot": 0,
        "tle_line1": "1 66840U 25280V   25344.75002315 -.01676267  00000+0 -71656-2 0  9995",
        "tle_line2": "2 66840  69.9929 204.5098 0003714 268.0290 311.0661 15.87691104  2585"
      },
      "geometry": {
        "type": "Point",
        "coordinates": [
          -81.34709205256168,
          69.59789104987763
        ]
      }
    },
    {
      "type": "Feature",
      "properties": {
        "norad_id": 66841,
        "name": "STARLINK-35715",
        "group": "last-30-days",
        "lat": 69.88390199642564,
        "lon": -75.59197114676508,
        "alt_km": 317.45162196834735,
        "timestamp": "2025-12-12T05:47:27.527448+00:00",
        "meta_object_name": "STARLINK-35715",
        "meta_object_id": "2025-280W",
        "meta_epoch": "2025-12-10T18:00:02.000160",
        "meta_mean_motion": 15.87733027,
        "meta_eccentricity": 0.0003766,
        "meta_inclination": 69.9927,
        "meta_ra_of_asc_node": 204.5074,
        "meta_arg_of_pericenter": 268.1486,
        "meta_mean_anomaly": 312.7726,
        "meta_ephemeris_type": 0,
        "meta_classification_type": "U",
        "meta_norad_cat_id": 66841,
        "meta_element_set_no": 999,
        "meta_rev_at_epoch": 258,
        "meta_bstar": -0.0071733,
        "meta_mean_motion_dot": -0.01680956,
        "meta_mean_motion_ddot": 0,
        "tle_line1": "1 66841U 25280W   25344.75002315 -.01680956  00000+0 -71733-2 0  9992",
        "tle_line2": "2 66841  69.9927 204.5074 0003766 268.1486 312.7726 15.87733027  2584"
      },
      "geometry": {
        "type": "Point",
        "coordinates": [
          -75.59197114676508,
          69.88390199642564
        ]
      }
    },
    {
      "type": "Feature",
      "properties": {
        "norad_id": 66842,
        "name": "STARLINK-35769",
        "group": "last-30-days",
        "lat": 69.97878130904033,
        "lon": -70.18468788683109,
        "alt_km": 317.2992811663871,
        "timestamp": "2025-12-12T05:47:27.527458+00:00",
        "meta_object_name": "STARLINK-35769",
        "meta_object_id": "2025-280X",
        "meta_epoch": "2025-12-10T18:00:02.000160",
        "meta_mean_motion": 15.87776553,
        "meta_eccentricity": 0.0003711,
        "meta_inclination": 69.9928,
        "meta_ra_of_asc_node": 204.5056,
        "meta_arg_of_pericenter": 269.4344,
        "meta_mean_anomaly": 313.1315,
        "meta_ephemeris_type": 0,
        "meta_classification_type": "U",
        "meta_norad_cat_id": 66842,
        "meta_element_set_no": 999,
        "meta_rev_at_epoch": 258,
        "meta_bstar": -0.0071714,
        "meta_mean_motion_dot": -0.01683694,
        "meta_mean_motion_ddot": 0,
        "tle_line1": "1 66842U 25280X   25344.75002315 -.01683694  00000+0 -71714-2 0  9994",
        "tle_line2": "2 66842  69.9928 204.5056 0003711 269.4344 313.1315 15.87776553  2583"
      },
      "geometry": {
        "type": "Point",
        "coordinates": [
          -70.18468788683109,
          69.97878130904033
        ]
      }
    },
    {
      "type": "Feature",
      "properties": {
        "norad_id": 66843,
        "name": "STARLINK-35997",
        "group": "last-30-days",
        "lat": 69.63676290930808,
        "lon": -58.81865009749233,
        "alt_km": 317.16004412279653,
        "timestamp": "2025-12-12T05:47:27.527474+00:00",
        "meta_object_name": "STARLINK-35997",
        "meta_object_id": "2025-280Y",
        "meta_epoch": "2025-12-10T18:00:02.000160",
        "meta_mean_motion": 15.87863546,
        "meta_eccentricity": 0.000373,
        "meta_inclination": 69.9924,
        "meta_ra_of_asc_node": 204.501,
        "meta_arg_of_pericenter": 268.9655,
        "meta_mean_anomaly": 317.1531,
        "meta_ephemeris_type": 0,
        "meta_classification_type": "U",
        "meta_norad_cat_id": 66843,
        "meta_element_set_no": 999,
        "meta_rev_at_epoch": 258,
        "meta_bstar": -0.0071908,
        "meta_mean_motion_dot": -0.0169407,
        "meta_mean_motion_ddot": 0,
        "tle_line1": "1 66843U 25280Y   25344.75002315 -.01694070  00000+0 -71908-2 0  9990",
        "tle_line2": "2 66843  69.9924 204.5010 0003730 268.9655 317.1531 15.87863546  2583"
      },
      "geometry": {
        "type": "Point",
        "coordinates": [
          -58.81865009749233,
          69.63676290930808
        ]
      }
    }
  ]
}